COSMOS 2419 (714)       
1 28915U 05050A   17121.53497480 -.00000010  00000-0  00000-0 0  9999
2 28915  65.4752  67.4253 0017476 348.6039 302.0111  2.13110353 88330
COSMOS 2425 (716)       
1 29670U 06062A   17121.79974928 -.00000002  00000-0  10000-3 0  9992
2 29670  65.4837 306.4254 0021772 351.7972 194.6446  2.13105007 80546
COSMOS 2426 (717)       
1 29671U 06062B   17121.66508295 -.00000002  00000-0  10000-3 0  9999
2 29671  65.5030 306.5190 0017248 157.3572 144.4385  2.13103014 80543
COSMOS 2424 (715)       
1 29672U 06062C   17121.56554388 -.00000002  00000-0  10000-3 0  9993
2 29672  65.4868 306.4452 0016667 156.0181 244.8221  2.13102230 80541
COSMOS 2433 (720)       
1 32275U 07052A   17121.52444235 -.00000011  00000-0  10000-3 0  9991
2 32275  65.4901  67.2008 0004507 292.5980 234.7892  2.13104764 74059
COSMOS 2432 (719)       
1 32276U 07052B   17121.73941959 -.00000011  00000-0  10000-3 0  9990
2 32276  65.5024  67.2633 0013926 333.2379 312.0471  2.13104171 74056
COSMOS 2434 (721)       
1 32393U 07065A   17121.53843806 -.00000002  00000-0  00000-0 0  9990
2 32393  65.1015 305.6053 0005859  94.9670 332.9792  2.13102946 72769
COSMOS 2436 (723)       
1 32395U 07065C   17121.47048647 -.00000003  00000-0  10000-3 0  9990
2 32395  65.1106 305.6535 0015924   7.9405  56.3284  2.13104334 72699
COSMOS 2443 (725)       
1 33379U 08046B   17120.73452116 -.00000010  00000-0  00000-0 0  9995
2 33379  65.4194  66.6123 0016154 187.6639 355.0262  2.13102493 66906
COSMOS 2456 (730)       
1 36111U 09070A   17121.72987288  .00000007  00000-0  00000-0 0  9998
2 36111  64.1780 185.1649 0005198 306.4975  79.2384  2.13102908 57439
COSMOS 2457 (733)       
1 36112U 09070B   17121.57471374  .00000008  00000-0  00000-0 0  9997
2 36112  64.1596 185.0897 0006281 178.0249 217.4545  2.13101581 57431
COSMOS 2458 (734)       
1 36113U 09070C   17121.55898748  .00000008  00000-0  10000-3 0  9998
2 36113  64.1660 185.0998 0001694 322.6456 108.6912  2.13102153 57431
COSMOS 2459 (731)       
1 36400U 10007A   17121.63102859 -.00000013  00000-0  10000-3 0  9996
2 36400  65.3984  66.3097 0029742 350.0375 121.5825  2.13102360 55785
COSMOS 2461 (735)       
1 36401U 10007B   17121.70490747 -.00000013  00000-0  10000-3 0  9991
2 36401  65.3919  66.2854 0006310  45.2622  33.6296  2.13102391 55787
COSMOS 2460 (732)       
1 36402U 10007C   17121.94780501 -.00000015  00000-0  10000-3 0  9990
2 36402  65.3823  66.2496 0002602 326.9688 339.6392  2.13101824 55781
COSMOS 2465 (737)       
1 37138U 10041B   17121.46897387 -.00000004  00000-0  00000-0 0  9997
2 37138  64.7004 305.6185 0034944 168.4417 250.8177  2.13106251 51858
COSMOS 2464 (736)       
1 37139U 10041C   17121.74641961 -.00000003  00000-0  00000-0 0  9993
2 37139  64.7067 305.6085 0024338  16.8719  78.3689  2.13102637 51859
COSMOS 2471 (701K)      
1 37372U 11009A   17121.73975367 -.00000014  00000-0  00000-0 0  9998
2 37372  65.3806  66.2036 0008302 247.1758  34.9883  2.13107747 48056
COSMOS 2474 (742)       
1 37829U 11055A   17121.73958369  .00000007  00000-0  00000-0 0  9990
2 37829  64.5025 185.7099 0009423 251.6524   1.5316  2.13101952 43428
COSMOS 2476 (744)       
1 37867U 11064A   17121.83601384  .00000006  00000-0  00000-0 0  9994
2 37867  64.4823 185.7798 0018546 245.2322 127.8630  2.13102070 42783
COSMOS 2477 (745)       
1 37868U 11064B   17121.70763845  .00000007  00000-0  00000-0 0  9993
2 37868  64.4907 185.8277 0016485 246.8918 206.8606  2.13101845 42733
COSMOS 2475 (743)       
1 37869U 11064C   17121.66801595  .00000007  00000-0  00000-0 0  9994
2 37869  64.4982 185.8191 0021378 271.6790 108.0408  2.13101938 42740
COSMOS 2485 (747)       
1 39155U 13019A   17121.61099137  .00000008  00000-0  00000-0 0  9993
2 39155  64.6516 185.8062 0018918 240.2625   5.2348  2.13102008 31240
COSMOS 2492 (754)       
1 39620U 14012A   17121.75164352 -.00000014  00000-0  10000-3 0  9993
2 39620  65.2718  66.1996 0017348 330.4696  56.9931  2.13103490 24206
COSMOS 2500 (755)       
1 40001U 14032A   17121.55961662 -.00000013  00000-0  00000-0 0  9992
2 40001  65.2112  66.2055 0005346 232.0162 231.2540  2.13102935 22414
COSMOS 2501 (702K)      
1 40315U 14075A   17121.45723868 -.00000006  00000-0  00000-0 0  9992
2 40315  64.4334 306.9774 0013706 205.1422 346.2592  2.13098606 18812
COSMOS 2514 (751)       
1 41330U 16008A   17121.76150456 -.00000014  00000-0  00000-0 0  9998
2 41330  65.0130  66.3564 0008746 232.0760 205.9490  2.13103484  9580
COSMOS 2516 (753)       
1 41554U 16032A   17121.84457447 -.00000004  00000-0  00000-0 0  9991
2 41554  64.6531 306.7160 0009575 216.0281 178.5781  2.13101681  7192
